start=new Date('2023-05-22T00:00:00.000Z').valueOf();
sats=[{"FILE":"3913738","DECAY_DATE":null,"MEAN_MOTION_DOT":"0.00002121","TIME_SYSTEM":"UTC","ARG_OF_PERICENTER":"78.6399","GP_ID":"232251350","NORAD_CAT_ID":"53987","PERIAPSIS":"538.881","INCLINATION":"53.2164","ECCENTRICITY":"0.00012310","RA_OF_ASC_NODE":"128.7588","SITE":"AFWTR","REF_FRAME":"TEME","REV_AT_EPOCH":"3495","MEAN_MOTION":"15.08844226","TLE_LINE1":"1 53987U 22125Z   23141.23981135  .00002121  00000-0  15126-3 0  9991","MEAN_ANOMALY":"281.4732","MEAN_ELEMENT_THEORY":"SGP4","ELEMENT_SET_NO":"999","CENTER_NAME":"EARTH","EPHEMERIS_TYPE":"0","SEMIMAJOR_AXIS":"6917.867","OBJECT_ID":"2022-125Z","TLE_LINE2":"2 53987  53.2164 128.7588 0001231  78.6399 281.4732 15.08844226 34951","COUNTRY_CODE":"US","BSTAR":"0.00015126000000","CLASSIFICATION_TYPE":"U","PERIOD":"95.437","APOAPSIS":"540.584","MEAN_MOTION_DDOT":"0.0000000000000","OBJECT_TYPE":"PAYLOAD","LAUNCH_DATE":"2022-10-05","RCS_SIZE":"LARGE","EPOCH":"2023-05-21T05:45:19.700640","OBJECT_NAME":"STARLINK-5112"},{"PERIOD":"95.438","CLASSIFICATION_TYPE":"U","OBJECT_TYPE":"PAYLOAD","MEAN_MOTION_DDOT":"0.0000000000000","APOAPSIS":"540.554","EPOCH":"2023-05-21T16:42:25.579296","RCS_SIZE":"LARGE","OBJECT_NAME":"STARLINK-5113","LAUNCH_DATE":"2022-10-05","EPHEMERIS_TYPE":"0","OBJECT_ID":"2022-125AA","SEMIMAJOR_AXIS":"6917.893","ELEMENT_SET_NO":"999","CENTER_NAME":"EARTH","COUNTRY_CODE":"US","TLE_LINE2":"2 53988  53.2162 126.6266 0001151  93.7392 266.3731 15.08835815 35015","BSTAR":"0.00017777000000","ECCENTRICITY":"0.00011510","SITE":"AFWTR","RA_OF_ASC_NODE":"126.6266","INCLINATION":"53.2162","PERIAPSIS":"538.962","TLE_LINE1":"1 53988U 22125AA  23141.69612939  .00002542  00000-0  17777-3 0  9996","MEAN_MOTION":"15.08835815","MEAN_ANOMALY":"266.3731","MEAN_ELEMENT_THEORY":"SGP4","REF_FRAME":"TEME","REV_AT_EPOCH":"3501","MEAN_MOTION_DOT":"0.00002542","FILE":"3914061","DECAY_DATE":null,"GP_ID":"232286069","NORAD_CAT_ID":"53988","ARG_OF_PERICENTER":"93.7392","TIME_SYSTEM":"UTC"},{"OBJECT_NAME":"STARLINK-5115","EPOCH":"2023-05-21T22:49:26.333472","RCS_SIZE":"LARGE","LAUNCH_DATE":"2022-10-05","OBJECT_TYPE":"PAYLOAD","MEAN_MOTION_DDOT":"0.0000000000000","APOAPSIS":"540.603","PERIOD":"95.438","CLASSIFICATION_TYPE":"U","BSTAR":"-0.00000604650000","TLE_LINE2":"2 53989  53.2159 125.3834 0001223  84.2667 275.8464 15.08836268 35065","COUNTRY_CODE":"US","OBJECT_ID":"2022-125AB","SEMIMAJOR_AXIS":"6917.892","EPHEMERIS_TYPE":"0","CENTER_NAME":"EARTH","ELEMENT_SET_NO":"999","MEAN_ELEMENT_THEORY":"SGP4","MEAN_ANOMALY":"275.8464","TLE_LINE1":"1 53989U 22125AB  23141.95099923 -.00000384  00000-0 -60465-5 0  9996","MEAN_MOTION":"15.08836268","REV_AT_EPOCH":"3506","REF_FRAME":"TEME","SITE":"AFWTR","RA_OF_ASC_NODE":"125.3834","ECCENTRICITY":"0.00012230","INCLINATION":"53.2159","PERIAPSIS":"538.911","NORAD_CAT_ID":"53989","GP_ID":"232286320","TIME_SYSTEM":"UTC","ARG_OF_PERICENTER":"84.2667","MEAN_MOTION_DOT":"-0.00000384","DECAY_DATE":null,"FILE":"3914061"},{"OBJECT_TYPE":"PAYLOAD","MEAN_MOTION_DDOT":"0.0000000000000","APOAPSIS":"540.760","PERIOD":"95.438","CLASSIFICATION_TYPE":"U","OBJECT_NAME":"STARLINK-5075","EPOCH":"2023-05-21T22:58:40.047744","RCS_SIZE":"LARGE","LAUNCH_DATE":"2022-10-05","OBJECT_ID":"2022-125AC","SEMIMAJOR_AXIS":"6917.885","EPHEMERIS_TYPE":"0","CENTER_NAME":"EARTH","ELEMENT_SET_NO":"999","BSTAR":"-0.00000041808000","TLE_LINE2":"2 53990  53.2166 125.4165 0001460  91.3002 268.8158 15.08838508 35058","COUNTRY_CODE":"US","SITE":"AFWTR","RA_OF_ASC_NODE":"125.4165","ECCENTRICITY":"0.00014600","INCLINATION":"53.2166","PERIAPSIS":"538.740","MEAN_ELEMENT_THEORY":"SGP4","MEAN_ANOMALY":"268.8158","TLE_LINE1":"1 53990U 22125AC  23141.95740796 -.00000295  00000-0 -41808-6 0  9991","MEAN_MOTION":"15.08838508","REV_AT_EPOCH":"3505","REF_FRAME":"TEME","MEAN_MOTION_DOT":"-0.00000295","DECAY_DATE":null,"FILE":"3914061","NORAD_CAT_ID":"53990","GP_ID":"232287071","TIME_SYSTEM":"UTC","ARG_OF_PERICENTER":"91.3002"},{"ARG_OF_PERICENTER":"83.9570","TIME_SYSTEM":"UTC","NORAD_CAT_ID":"53991","GP_ID":"232254337","DECAY_DATE":null,"FILE":"3913807","MEAN_MOTION_DOT":"0.00001116","REV_AT_EPOCH":"3519","REF_FRAME":"TEME","MEAN_ELEMENT_THEORY":"SGP4","MEAN_ANOMALY":"276.1545","MEAN_MOTION":"15.07214488","TLE_LINE1":"1 53991U 22125AD  23141.23198118  .00001116  00000-0  91864-4 0  9994","PERIAPSIS":"543.970","INCLINATION":"53.2156","RA_OF_ASC_NODE":"116.5937","SITE":"AFWTR","ECCENTRICITY":"0.00010810","BSTAR":"0.00009186400000","COUNTRY_CODE":"US","TLE_LINE2":"2 53991  53.2156 116.5937 0001081  83.9570 276.1545 15.07214488 35193","CENTER_NAME":"EARTH","ELEMENT_SET_NO":"999","SEMIMAJOR_AXIS":"6922.853","OBJECT_ID":"2022-125AD","EPHEMERIS_TYPE":"0","LAUNCH_DATE":"2022-10-05","OBJECT_NAME":"STARLINK-5118","RCS_SIZE":"LARGE","EPOCH":"2023-05-21T05:34:03.173952","APOAPSIS":"545.467","MEAN_MOTION_DDOT":"0.0000000000000","OBJECT_TYPE":"PAYLOAD","CLASSIFICATION_TYPE":"U","PERIOD":"95.540"},{"OBJECT_TYPE":"PAYLOAD","APOAPSIS":"540.677","MEAN_MOTION_DDOT":"0.0000000000000","PERIOD":"95.438","CLASSIFICATION_TYPE":"U","OBJECT_NAME":"STARLINK-5108","EPOCH":"2023-05-21T22:48:03.380832","RCS_SIZE":"LARGE","LAUNCH_DATE":"2022-10-05","OBJECT_ID":"2022-125AE","SEMIMAJOR_AXIS":"6917.891","EPHEMERIS_TYPE":"0","CENTER_NAME":"EARTH","ELEMENT_SET_NO":"999","BSTAR":"0.00000440460000","TLE_LINE2":"2 53992  53.2163 125.3699 0001331  89.8030 270.3115 15.08836456 35059","COUNTRY_CODE":"US","SITE":"AFWTR","RA_OF_ASC_NODE":"125.3699","ECCENTRICITY":"0.00013310","INCLINATION":"53.2163","PERIAPSIS":"538.835","MEAN_ELEMENT_THEORY":"SGP4","MEAN_ANOMALY":"270.3115","TLE_LINE1":"1 53992U 22125AE  23141.95003913 -.00000218  00000-0  44046-5 0  9996","MEAN_MOTION":"15.08836456","REV_AT_EPOCH":"3505","REF_FRAME":"TEME","MEAN_MOTION_DOT":"-0.00000218","DECAY_DATE":null,"FILE":"3914061","NORAD_CAT_ID":"53992","GP_ID":"232285569","ARG_OF_PERICENTER":"89.8030","TIME_SYSTEM":"UTC"},{"EPOCH":"2023-05-21T22:14:14.445312","RCS_SIZE":"LARGE","OBJECT_NAME":"STARLINK-5121","LAUNCH_DATE":"2022-10-05","PERIOD":"95.438","CLASSIFICATION_TYPE":"U","OBJECT_TYPE":"PAYLOAD","APOAPSIS":"540.808","MEAN_MOTION_DDOT":"0.0000000000000","TLE_LINE2":"2 53993  53.2158 120.2346 0001499  82.7595 277.3567 15.08831775 35125","COUNTRY_CODE":"US","BSTAR":"-0.00001605400000","EPHEMERIS_TYPE":"0","OBJECT_ID":"2022-125AF","SEMIMAJOR_AXIS":"6917.906","ELEMENT_SET_NO":"999","CENTER_NAME":"EARTH","TLE_LINE1":"1 53993U 22125AF  23141.92655608 -.00000543  00000-0 -16054-4 0  9997","MEAN_MOTION":"15.08831775","MEAN_ELEMENT_THEORY":"SGP4","MEAN_ANOMALY":"277.3567","REF_FRAME":"TEME","REV_AT_EPOCH":"3512","ECCENTRICITY":"0.00014990","SITE":"AFWTR","RA_OF_ASC_NODE":"120.2346","INCLINATION":"53.2158","PERIAPSIS":"538.734","GP_ID":"232286821","NORAD_CAT_ID":"53993","ARG_OF_PERICENTER":"82.7595","TIME_SYSTEM":"UTC","MEAN_MOTION_DOT":"-0.00000543","FILE":"3914061","DECAY_DATE":null},{"ARG_OF_PERICENTER":"85.2438","TIME_SYSTEM":"UTC","GP_ID":"232251600","NORAD_CAT_ID":"53994","FILE":"3913738","DECAY_DATE":null,"MEAN_MOTION_DOT":"0.00001908","REF_FRAME":"TEME","REV_AT_EPOCH":"3497","TLE_LINE1":"1 53994U 22125AG  23141.34281423  .00001908  00000-0  13788-3 0  9998","MEAN_MOTION":"15.08850163","MEAN_ELEMENT_THEORY":"SGP4","MEAN_ANOMALY":"274.8688","INCLINATION":"53.2160","PERIAPSIS":"538.904","ECCENTRICITY":"0.00011710","SITE":"AFWTR","RA_OF_ASC_NODE":"127.9778","TLE_LINE2":"2 53994  53.2160 127.9778 0001171  85.2438 274.8688 15.08850163 34973","COUNTRY_CODE":"US","BSTAR":"0.00013788000000","ELEMENT_SET_NO":"999","CENTER_NAME":"EARTH","EPHEMERIS_TYPE":"0","OBJECT_ID":"2022-125AG","SEMIMAJOR_AXIS":"6917.849","LAUNCH_DATE":"2022-10-05","EPOCH":"2023-05-21T08:13:39.149472","RCS_SIZE":"LARGE","OBJECT_NAME":"STARLINK-5125","PERIOD":"95.437","CLASSIFICATION_TYPE":"U","OBJECT_TYPE":"PAYLOAD","APOAPSIS":"540.524","MEAN_MOTION_DDOT":"0.0000000000000"},{"MEAN_ELEMENT_THEORY":"SGP4","MEAN_ANOMALY":"276.6907","MEAN_MOTION":"15.08832305","TLE_LINE1":"1 53995U 22125AH  23141.94636127 -.00000610  00000-0 -20213-4 0  9993","REV_AT_EPOCH":"3505","REF_FRAME":"TEME","RA_OF_ASC_NODE":"125.3495","SITE":"AFWTR","ECCENTRICITY":"0.00013650","PERIAPSIS":"538.825","INCLINATION":"53.2176","NORAD_CAT_ID":"53995","GP_ID":"232285820","ARG_OF_PERICENTER":"83.4241","TIME_SYSTEM":"UTC","MEAN_MOTION_DOT":"-0.00000610","DECAY_DATE":null,"FILE":"3914061","OBJECT_NAME":"STARLINK-5097","RCS_SIZE":"LARGE","EPOCH":"2023-05-21T22:42:45.613728","LAUNCH_DATE":"2022-10-05","MEAN_MOTION_DDOT":"0.0000000000000","APOAPSIS":"540.713","OBJECT_TYPE":"PAYLOAD","CLASSIFICATION_TYPE":"U","PERIOD":"95.438","BSTAR":"-0.00002021300000","TLE_LINE2":"2 53995  53.2176 125.3495 0001365  83.4241 276.6907 15.08832305 35058","COUNTRY_CODE":"US","SEMIMAJOR_AXIS":"6917.904","OBJECT_ID":"2022-125AH","EPHEMERIS_TYPE":"0","CENTER_NAME":"EARTH","ELEMENT_SET_NO":"999"},{"FILE":"3914061","DECAY_DATE":null,"MEAN_MOTION_DOT":"0.00000313","TIME_SYSTEM":"UTC","ARG_OF_PERICENTER":"88.4133","GP_ID":"232286070","NORAD_CAT_ID":"53996","PERIAPSIS":"538.668","INCLINATION":"53.2165","ECCENTRICITY":"0.00015730","RA_OF_ASC_NODE":"125.2798","SITE":"AFWTR","REF_FRAME":"TEME","REV_AT_EPOCH":"3506","MEAN_MOTION":"15.08836600","TLE_LINE1":"1 53996U 22125AJ  23141.93530190  .00000313  00000-0  37774-4 0  9994","MEAN_ANOMALY":"271.7040","MEAN_ELEMENT_THEORY":"SGP4","ELEMENT_SET_NO":"999","CENTER_NAME":"EARTH","EPHEMERIS_TYPE":"0","SEMIMAJOR_AXIS":"6917.891","OBJECT_ID":"2022-125AJ","COUNTRY_CODE":"US","TLE_LINE2":"2 53996  53.2165 125.2798 0001573  88.4133 271.7040 15.08836600 35065","BSTAR":"0.00003777400000","CLASSIFICATION_TYPE":"U","PERIOD":"95.438","APOAPSIS":"540.844","MEAN_MOTION_DDOT":"0.0000000000000","OBJECT_TYPE":"PAYLOAD","LAUNCH_DATE":"2022-10-05","RCS_SIZE":"LARGE","EPOCH":"2023-05-21T22:26:50.084160","OBJECT_NAME":"STARLINK-5131"}];
